{
  "type": "FeatureCollection",
  "features": [
    {
      "type": "Feature",
      "properties": {
        "name": "EMSR927/AOI02 - Timure"
      },
      "geometry": {
        "type": "Polygon",
        "coordinates": [
          [
            [
              85.378301,
              28.266152
            ],
            [
              85.374258,
              28.260824
            ],
            [
              85.369497,
              28.256273
            ],
            [
              85.367946,
              28.252208
            ],
            [
              85.366716,
              28.248731
            ],
            [
              85.36438,
              28.244793
            ],
            [
              85.361182,
              28.243007
            ],
            [
              85.359394,
              28.242372
            ],
            [
              85.357083,
              28.243451
            ],
            [
              85.366921,
              28.263924
            ],
            [
              85.375277,
              28.278948
            ],
            [
              85.376477,
              28.279944
            ],
            [
              85.376991,
              28.278846
            ],
            [
              85.37687,
              28.278346
            ],
            [
              85.376962,
              28.277926
            ],
            [
              85.377969,
              28.278415
            ],
            [
              85.379021,
              28.27911
            ],
            [
              85.379669,
              28.27832
            ],
            [
              85.380578,
              28.27831
            ],
            [
              85.380579,
              28.27831
            ],
            [
              85.379703,
              28.274343
            ],
            [
              85.379716,
              28.270867
            ],
            [
              85.378301,
              28.266152
            ]
          ]
        ]
      }
    },
    {
      "type": "Feature",
      "properties": {
        "name": "EMSR927/AOI03 - Bidur"
      },
      "geometry": {
        "type": "Polygon",
        "coordinates": [
          [
            [
              85.172487,
              27.982253
            ],
            [
              85.174225,
              27.984247
            ],
            [
              85.177865,
              27.984521
            ],
            [
              85.178193,
              27.987943
            ],
            [
              85.180097,
              27.994084
            ],
            [
              85.182008,
              27.996346
            ],
            [
              85.181922,
              28.006476
            ],
            [
              85.181188,
              28.009103
            ],
            [
              85.1859,
              28.009015
            ],
            [
              85.18711,
              28.003619
            ],
            [
              85.187469,
              27.998737
            ],
            [
              85.187346,
              27.995965
            ],
            [
              85.184195,
              27.989093
            ],
            [
              85.182612,
              27.982858
            ],
            [
              85.184804,
              27.975914
            ],
            [
              85.185955,
              27.976331
            ],
            [
              85.188297,
              27.977515
            ],
            [
              85.18977,
              27.977568
            ],
            [
              85.192361,
              27.97636
            ],
            [
              85.192867,
              27.975494
            ],
            [
              85.192771,
              27.974453
            ],
            [
              85.191074,
              27.97311
            ],
            [
              85.187124,
              27.969702
            ],
            [
              85.177395,
              27.963001
            ],
            [
              85.175048,
              27.961956
            ],
            [
              85.172712,
              27.960288
            ],
            [
              85.166818,
              27.953725
            ],
            [
              85.167143,
              27.951199
            ],
            [
              85.16678,
              27.948581
            ],
            [
              85.165317,
              27.944364
            ],
            [
              85.160397,
              27.936632
            ],
            [
              85.158421,
              27.932091
            ],
            [
              85.157463,
              27.930726
            ],
            [
              85.154348,
              27.928923
            ],
            [
              85.154392,
              27.925169
            ],
            [
              85.153421,
              27.922149
            ],
            [
              85.151983,
              27.920724
            ],
            [
              85.149079,
              27.919528
            ],
            [
              85.146965,
              27.919002
            ],
            [
              85.144327,
              27.916379
            ],
            [
              85.14375,
              27.915417
            ],
            [
              85.145326,
              27.911675
            ],
            [
              85.148542,
              27.907271
            ],
            [
              85.150779,
              27.902028
            ],
            [
              85.150709,
              27.896994
            ],
            [
              85.148682,
              27.889024
            ],
            [
              85.144837,
              27.883781
            ],
            [
              85.140222,
              27.879587
            ],
            [
              85.121291,
              27.865529
            ],
            [
              85.11723,
              27.861876
            ],
            [
              85.108995,
              27.856741
            ],
            [
              85.101888,
              27.856983
            ],
            [
              85.09925,
              27.85939
            ],
            [
              85.106257,
              27.86926
            ],
            [
              85.110842,
              27.873531
            ],
            [
              85.117955,
              27.877555
            ],
            [
              85.121278,
              27.8823
            ],
            [
              85.127067,
              27.886632
            ],
            [
              85.128938,
              27.887697
            ],
            [
              85.133419,
              27.891739
            ],
            [
              85.134186,
              27.893712
            ],
            [
              85.134102,
              27.89921
            ],
            [
              85.132337,
              27.904989
            ],
            [
              85.133886,
              27.910049
            ],
            [
              85.1337,
              27.911835
            ],
            [
              85.132595,
              27.913962
            ],
            [
              85.132626,
              27.915408
            ],
            [
              85.133362,
              27.921769
            ],
            [
              85.13403,
              27.923658
            ],
            [
              85.138824,
              27.92375
            ],
            [
              85.142083,
              27.927917
            ],
            [
              85.144583,
              27.929583
            ],
            [
              85.147119,
              27.937559
            ],
            [
              85.154282,
              27.943233
            ],
            [
              85.158353,
              27.950059
            ],
            [
              85.160018,
              27.955579
            ],
            [
              85.160272,
              27.957631
            ],
            [
              85.164262,
              27.959873
            ],
            [
              85.16647,
              27.964422
            ],
            [
              85.170154,
              27.968154
            ],
            [
              85.174966,
              27.97004
            ],
            [
              85.178462,
              27.971908
            ],
            [
              85.17944,
              27.97346
            ],
            [
              85.179851,
              27.976139
            ],
            [
              85.178373,
              27.979911
            ],
            [
              85.17801659279013,
              27.98084404496179
            ],
            [
              85.172755,
              27.981425
            ],
            [
              85.172487,
              27.982253
            ]
          ]
        ]
      }
    },
    {
      "type": "Feature",
      "properties": {
        "name": "EMSR927/AOI01 - Syapru Besi"
      },
      "geometry": {
        "type": "Polygon",
        "coordinates": [
          [
            [
              85.325719,
              28.149117
            ],
            [
              85.3232,
              28.152077
            ],
            [
              85.334713,
              28.163762
            ],
            [
              85.34191,
              28.185015
            ],
            [
              85.34203,
              28.185333
            ],
            [
              85.345149,
              28.188188
            ],
            [
              85.348268,
              28.187659
            ],
            [
              85.347488,
              28.182742
            ],
            [
              85.347488,
              28.182583
            ],
            [
              85.347488,
              28.182371
            ],
            [
              85.347906,
              28.172855
            ],
            [
              85.345267,
              28.16392
            ],
            [
              85.341309,
              28.160643
            ],
            [
              85.335013,
              28.155409
            ],
            [
              85.325719,
              28.149117
            ]
          ]
        ]
      }
    },
    {
      "type": "Feature",
      "properties": {
        "name": "EMSR927/AOI04 - Bharatpur"
      },
      "geometry": {
        "type": "Polygon",
        "coordinates": [
          [
            [
              84.351228,
              27.692801
            ],
            [
              84.354831,
              27.707957
            ],
            [
              84.382154,
              27.700455
            ],
            [
              84.405486,
              27.707292
            ],
            [
              84.417898,
              27.717837
            ],
            [
              84.430674,
              27.717502
            ],
            [
              84.435255,
              27.703892
            ],
            [
              84.437508,
              27.697195
            ],
            [
              84.42625,
              27.689583
            ],
            [
              84.41875,
              27.685417
            ],
            [
              84.40959,
              27.682083
            ],
            [
              84.383932,
              27.675376
            ],
            [
              84.366701,
              27.678296
            ],
            [
              84.351228,
              27.692801
            ]
          ]
        ]
      }
    }
  ]
}
